{"type": "FeatureCollection", "fuente": "Natural Earth 10m admin_0_map_subunits (dominio publico), https://naciscdn.org/naturalearth/10m/cultural/ne_10m_admin_0_map_subunits.zip, bajado 2026-09-15. Recortado a los dos enclaves espanoles en Africa.", "features": [{"type": "Feature", "properties": {"name": "Ceuta", "admin": "Spain", "iso": "ESP", "su_a3": "SEC"}, "geometry": {"type": "Polygon", "coordinates": [[[-5.340728318999936, 35.847357489000046], [-5.362897908999884, 35.863806865000114], [-5.378400837999891, 35.881686910000084], [-5.3897179769998615, 35.90204742500002], [-5.398858678999886, 35.924503853000076], [-5.3851619129999335, 35.92617422100005], [-5.366200324999909, 35.92475006700005], [-5.344105597999942, 35.91474030200004], [-5.3273819649999155, 35.90424225500004], [-5.309315558999913, 35.900824286000045], [-5.283070441999939, 35.91168854400007], [-5.2918595039999445, 35.89052969000005], [-5.335560675999943, 35.86237213700008], [-5.340728318999936, 35.847357489000046]]]}}, {"type": "Feature", "properties": {"name": "Melilla", "admin": "Spain", "iso": "ESP", "su_a3": "SEM"}, "geometry": {"type": "Polygon", "coordinates": [[[-2.9478246739999463, 35.329779364000046], [-2.922027147999927, 35.287990627000056], [-2.9131973949999406, 35.27724844000005], [-2.912912563999953, 35.27692291900007], [-2.9430456139998853, 35.2678742480001], [-2.9637678629999016, 35.286219381000095], [-2.966920125999877, 35.313866272], [-2.9478246739999463, 35.329779364000046]]]}}]}